{
  "type": "FeatureCollection",
  "features": [
    {
      "type": "Feature",
      "properties": {
        "norad_id": 15362,
        "name": "NOVA 3",
        "group": "nnss",
        "lat": -35.96942687159928,
        "lon": -99.3797670693246,
        "alt_km": 1172.8895691957086,
        "timestamp": "2025-12-27T12:55:14.773782+00:00",
        "meta_object_name": "NOVA 3",
        "meta_object_id": "1984-110A",
        "meta_epoch": "2025-12-27T06:41:48.293952",
        "meta_mean_motion": 13.23046512,
        "meta_eccentricity": 0.00298338,
        "meta_inclination": 90.1216,
        "meta_ra_of_asc_node": 80.7055,
        "meta_arg_of_pericenter": 289.9278,
        "meta_mean_anomaly": 131.7863,
        "meta_ephemeris_type": 0,
        "meta_classification_type": "U",
        "meta_norad_cat_id": 15362,
        "meta_element_set_no": 999,
        "meta_rev_at_epoch": 98891,
        "meta_bstar": 0.00019179605,
        "meta_mean_motion_dot": 8.9e-07,
        "meta_mean_motion_ddot": 0,
        "tle_line1": "1 15362U 84110A   25361.27903118  .00000089  00000+0  19180-3 0  9997",
        "tle_line2": "2 15362  90.1216  80.7055 0029833 289.9278 131.7863 13.23046512988914"
      },
      "geometry": {
        "type": "Point",
        "coordinates": [
          -99.3797670693246,
          -35.96942687159928
        ]
      }
    },
    {
      "type": "Feature",
      "properties": {
        "norad_id": 15935,
        "name": "OSCAR 30",
        "group": "nnss",
        "lat": -88.9714555706475,
        "lon": -89.16376763435424,
        "alt_km": 1217.46516880321,
        "timestamp": "2025-12-27T12:55:14.773793+00:00",
        "meta_object_name": "OSCAR 30",
        "meta_object_id": "1985-066A",
        "meta_epoch": "2025-12-27T06:26:13.450272",
        "meta_mean_motion": 13.36080793,
        "meta_eccentricity": 0.01687057,
        "meta_inclination": 90.1653,
        "meta_ra_of_asc_node": 100.0846,
        "meta_arg_of_pericenter": 43.2828,
        "meta_mean_anomaly": 8.4639,
        "meta_ephemeris_type": 0,
        "meta_classification_type": "U",
        "meta_norad_cat_id": 15935,
        "meta_element_set_no": 999,
        "meta_rev_at_epoch": 96647,
        "meta_bstar": 0.00016690867,
        "meta_mean_motion_dot": 1.02e-06,
        "meta_mean_motion_ddot": 0,
        "tle_line1": "1 15935U 85066A   25361.26821123  .00000102  00000+0  16691-3 0  9998",
        "tle_line2": "2 15935  90.1653 100.0846 0168705  43.2828   8.4639 13.36080793966474"
      },
      "geometry": {
        "type": "Point",
        "coordinates": [
          -89.16376763435424,
          -88.9714555706475
        ]
      }
    },
    {
      "type": "Feature",
      "properties": {
        "norad_id": 15936,
        "name": "OSCAR 24",
        "group": "nnss",
        "lat": -23.813085601789748,
        "lon": 92.64622041807407,
        "alt_km": 1090.0074648514192,
        "timestamp": "2025-12-27T12:55:14.773804+00:00",
        "meta_object_name": "OSCAR 24",
        "meta_object_id": "1985-066B",
        "meta_epoch": "2025-12-27T07:58:31.321344",
        "meta_mean_motion": 13.35938011,
        "meta_eccentricity": 0.01698896,
        "meta_inclination": 90.1791,
        "meta_ra_of_asc_node": 92.5635,
        "meta_arg_of_pericenter": 49.5567,
        "meta_mean_anomaly": 18.1592,
        "meta_ephemeris_type": 0,
        "meta_classification_type": "U",
        "meta_norad_cat_id": 15936,
        "meta_element_set_no": 999,
        "meta_rev_at_epoch": 96838,
        "meta_bstar": 0.0001491353,
        "meta_mean_motion_dot": 9.2e-07,
        "meta_mean_motion_ddot": 0,
        "tle_line1": "1 15936U 85066B   25361.33230696  .00000092  00000+0  14914-3 0  9990",
        "tle_line2": "2 15936  90.1791  92.5635 0169889  49.5567  18.1592 13.35938011968384"
      },
      "geometry": {
        "type": "Point",
        "coordinates": [
          92.64622041807407,
          -23.813085601789748
        ]
      }
    },
    {
      "type": "Feature",
      "properties": {
        "norad_id": 17070,
        "name": "POLAR BEAR",
        "group": "nnss",
        "lat": 73.91061447400264,
        "lon": 1.8522046731076292,
        "alt_km": 947.3254802383108,
        "timestamp": "2025-12-27T12:55:14.773815+00:00",
        "meta_object_name": "POLAR BEAR",
        "meta_object_id": "1986-088A",
        "meta_epoch": "2025-12-27T06:15:35.338752",
        "meta_mean_motion": 13.75253832,
        "meta_eccentricity": 0.00412517,
        "meta_inclination": 89.617,
        "meta_ra_of_asc_node": 183.1922,
        "meta_arg_of_pericenter": 77.5112,
        "meta_mean_anomaly": 95.0753,
        "meta_ephemeris_type": 0,
        "meta_classification_type": "U",
        "meta_norad_cat_id": 17070,
        "meta_element_set_no": 999,
        "meta_rev_at_epoch": 96178,
        "meta_bstar": 0.0001183469,
        "meta_mean_motion_dot": 1.26e-06,
        "meta_mean_motion_ddot": 0,
        "tle_line1": "1 17070U 86088A   25361.26082568  .00000126  00000+0  11835-3 0  9998",
        "tle_line2": "2 17070  89.6170 183.1922 0041251  77.5112  95.0753 13.75253832961789"
      },
      "geometry": {
        "type": "Point",
        "coordinates": [
          1.8522046731076292,
          73.91061447400264
        ]
      }
    },
    {
      "type": "Feature",
      "properties": {
        "norad_id": 18361,
        "name": "OSCAR 27",
        "group": "nnss",
        "lat": -9.219014143667666,
        "lon": -100.23516999010441,
        "alt_km": 1018.0226370538912,
        "timestamp": "2025-12-27T12:55:14.773826+00:00",
        "meta_object_name": "OSCAR 27",
        "meta_object_id": "1987-080A",
        "meta_epoch": "2025-12-27T06:37:38.342208",
        "meta_mean_motion": 13.44909782,
        "meta_eccentricity": 0.01041465,
        "meta_inclination": 90.3735,
        "meta_ra_of_asc_node": 79.8157,
        "meta_arg_of_pericenter": 182.017,
        "meta_mean_anomaly": 178.0573,
        "meta_ephemeris_type": 0,
        "meta_classification_type": "U",
        "meta_norad_cat_id": 18361,
        "meta_element_set_no": 999,
        "meta_rev_at_epoch": 87752,
        "meta_bstar": 0.00017370212,
        "meta_mean_motion_dot": 1.14e-06,
        "meta_mean_motion_ddot": 0,
        "tle_line1": "1 18361U 87080A   25361.27613822  .00000114  00000+0  17370-3 0  9996",
        "tle_line2": "2 18361  90.3735  79.8157 0104146 182.0170 178.0573 13.44909782877527"
      },
      "geometry": {
        "type": "Point",
        "coordinates": [
          -100.23516999010441,
          -9.219014143667666
        ]
      }
    },
    {
      "type": "Feature",
      "properties": {
        "norad_id": 18362,
        "name": "OSCAR 29",
        "group": "nnss",
        "lat": 3.7035486629968357,
        "lon": -99.6901206508432,
        "alt_km": 1025.903607442534,
        "timestamp": "2025-12-27T12:55:14.773836+00:00",
        "meta_object_name": "OSCAR 29",
        "meta_object_id": "1987-080B",
        "meta_epoch": "2025-12-27T07:00:45.935712",
        "meta_mean_motion": 13.44451184,
        "meta_eccentricity": 0.01049483,
        "meta_inclination": 90.3747,
        "meta_ra_of_asc_node": 80.2764,
        "meta_arg_of_pericenter": 205.0931,
        "meta_mean_anomaly": 220.9034,
        "meta_ephemeris_type": 0,
        "meta_classification_type": "U",
        "meta_norad_cat_id": 18362,
        "meta_element_set_no": 999,
        "meta_rev_at_epoch": 87705,
        "meta_bstar": 0.00014998597,
        "meta_mean_motion_dot": 9.8e-07,
        "meta_mean_motion_ddot": 0,
        "tle_line1": "1 18362U 87080B   25361.29219833  .00000098  00000+0  14999-3 0  9998",
        "tle_line2": "2 18362  90.3747  80.2764 0104948 205.0931 220.9034 13.44451184877057"
      },
      "geometry": {
        "type": "Point",
        "coordinates": [
          -99.6901206508432,
          3.7035486629968357
        ]
      }
    },
    {
      "type": "Feature",
      "properties": {
        "norad_id": 19070,
        "name": "OSCAR 23",
        "group": "nnss",
        "lat": 33.983060174008386,
        "lon": -162.93333165727643,
        "alt_km": 1010.3615642736868,
        "timestamp": "2025-12-27T12:55:14.773854+00:00",
        "meta_object_name": "OSCAR 23",
        "meta_object_id": "1988-033A",
        "meta_epoch": "2025-12-27T01:28:05.869056",
        "meta_mean_motion": 13.27789432,
        "meta_eccentricity": 0.01906122,
        "meta_inclination": 90.3203,
        "meta_ra_of_asc_node": 16.8358,
        "meta_arg_of_pericenter": 140.2128,
        "meta_mean_anomaly": 245.8061,
        "meta_ephemeris_type": 0,
        "meta_classification_type": "U",
        "meta_norad_cat_id": 19070,
        "meta_element_set_no": 999,
        "meta_rev_at_epoch": 82443,
        "meta_bstar": 0.00016492817,
        "meta_mean_motion_dot": 9.2e-07,
        "meta_mean_motion_ddot": 0,
        "tle_line1": "1 19070U 88033A   25361.06117904  .00000092  00000+0  16493-3 0  9990",
        "tle_line2": "2 19070  90.3203  16.8358 0190612 140.2128 245.8061 13.27789432824437"
      },
      "geometry": {
        "type": "Point",
        "coordinates": [
          -162.93333165727643,
          33.983060174008386
        ]
      }
    }
  ]
}